GSAT0202 (PRN E14)      
1 40129U 14050B   23318.21036207 -.00000053  00000+0  00000+0 0  9991
2 40129  49.8904 310.8030 1604669 143.8606 228.1557  1.85520108 62937
GSAT0203 (PRN E26)      
1 40544U 15017A   23317.46623754 -.00000069  00000+0  00000+0 0  9998
2 40544  56.9121   7.3637 0003099 239.2955 120.7451  1.70476157 53067
GSAT0204 (PRN E22)      
1 40545U 15017B   23317.13349843 -.00000070  00000+0  00000+0 0  9999
2 40545  56.9173   7.3874 0005064 239.7767 120.2441  1.70475705 16104
GSAT0205 (PRN E24)      
1 40889U 15045A   23316.90164945 -.00000005  00000+0  00000+0 0  9991
2 40889  55.3269 247.7762 0004847  11.5755 348.4388  1.70472976 50863
GSAT0206 (PRN E30)      
1 40890U 15045B   23318.88211969  .00000005  00000+0  00000+0 0  9990
2 40890  55.3240 247.7170 0003289   5.7170 354.3042  1.70472901 50920
GSAT0209 (PRN E09)      
1 41174U 15079A   23318.46664500  .00000086  00000+0  00000+0 0  9999
2 41174  55.3318 127.2440 0001698 345.2341  14.7738  1.70474380 48657
GSAT0208 (PRN E08)      
1 41175U 15079B   23316.33999051  .00000093  00000+0  00000+0 0  9994
2 41175  55.3289 127.3004 0001215   4.5649 355.4640  1.70474291 49034
GSAT0211 (PRN E02)      
1 41549U 16030A   23317.63462215 -.00000001  00000+0  00000+0 0  9998
2 41549  55.4725 247.7394 0004083 337.5990  22.3915  1.70472986 46534
GSAT0210 (PRN E01)      
1 41550U 16030B   23316.16626416 -.00000009  00000+0  00000+0 0  9990
2 41550  55.4727 247.7809 0003127 303.2767  56.6921  1.70473320 46506
GSAT0207 (PRN E07)      
1 41859U 16069A   23317.00071246  .00000091  00000+0  00000+0 0  9993
2 41859  54.9942 127.3390 0001516 304.7197  55.2895  1.70474325 43252
GSAT0212 (PRN E03)      
1 41860U 16069B   23318.02843274  .00000088  00000+0  00000+0 0  9992
2 41860  54.9916 127.3075 0001539  36.5935 323.4331  1.70474616 43528
GSAT0213 (PRN E04)      
1 41861U 16069C   23317.80847304  .00000088  00000+0  00000+0 0  9996
2 41861  54.9944 127.3196 0001864 251.0107 108.9868  1.70473168 43386
GSAT0214 (PRN E05)      
1 41862U 16069D   23318.54227787  .00000086  00000+0  00000+0 0  9994
2 41862  54.9934 127.2933 0000986 236.2281 123.7751  1.70474384 43529
GSAT0215 (PRN E21)      
1 43055U 17079A   23316.09793063 -.00000009  00000+0  00000+0 0  9991
2 43055  55.4499 247.6066 0002566 297.5031  62.4695  1.70473719 36822
GSAT0216 (PRN E25)      
1 43056U 17079B   23317.56298170 -.00000001  00000+0  00000+0 0  9996
2 43056  55.4493 247.5661 0004113 295.1249  64.8407  1.70473809 36830
GSAT0217 (PRN E27)      
1 43057U 17079C   23317.19677409 -.00000003  00000+0  00000+0 0  9994
2 43057  55.4477 247.5752 0003917 309.7317  50.2394  1.70473790 36847
GSAT0218 (PRN E31)      
1 43058U 17079D   23318.00341428  .00000002  00000+0  00000+0 0  9993
2 43058  55.4475 247.5505 0004456 289.8262  70.1373  1.70473774 36882
GSAT0221 (PRN E15)      
1 43564U 18060A   23317.31656289 -.00000069  00000+0  00000+0 0  9997
2 43564  57.2914   7.3137 0005139 265.7631  94.2499  1.70476065 33022
GSAT0222 (PRN E33)      
1 43565U 18060B   23315.77498703 -.00000073  00000+0  00000+0 0  9996
2 43565  57.2947   7.3564 0005073 239.6791 120.3399  1.70475968 33040
GSAT0219 (PRN E36)      
1 43566U 18060C   23317.17039464 -.00000069  00000+0  00000+0 0  9993
2 43566  57.2939   7.3209 0004123 269.1070  90.9173  1.70476117 33040
GSAT0220 (PRN E13)      
1 43567U 18060D   23317.97743891 -.00000067  00000+0  00000+0 0  9996
2 43567  57.2935   7.2998 0004645 268.1678  91.8509  1.70475914 33040
GSAT0223 (PRN E34)      
1 49809U 21116A   23317.25587942 -.00000069  00000+0  00000+0 0  9993
2 49809  57.2850   7.2150 0003711 222.9950 144.5090  1.70476162 12049
GSAT0224 (PRN E10)      
1 49810U 21116B   23317.64694299 -.00000068  00000+0  00000+0 0  9991
2 49810  57.2855   7.2027 0003060 218.7483 141.2496  1.70476235 12067
TDRS 3                  
1 19548U 88091B   23318.98119118 -.00000285  00000+0  00000+0 0  9992
2 19548  13.3309 347.4419 0038859 330.4575  39.9521  1.00263194115899
FLTSATCOM 8 (USA 46)    
1 20253U 89077A   23318.51448829 -.00000350  00000+0  00000+0 0  9998
2 20253  12.7029 356.8874 0004383 245.4381 122.0967  1.00270918251127
SKYNET 4C               
1 20776U 90079A   23318.78260531  .00000141  00000+0  00000+0 0  9990
2 20776  13.6468 356.2959 0002844 234.3021 138.1800  1.00272467121413
TDRS 5                  
1 21639U 91054B   23318.69770368  .00000101  00000+0  00000+0 0  9993
2 21639  14.1907   0.7030 0023343 355.8861 140.8604  1.00274898118233
TDRS 6                  
1 22314U 93003B   23318.54636492 -.00000279  00000+0  00000+0 0  9990
2 22314  14.1569   3.9963 0009906 164.2848  35.8041  1.00278789112925
UFO 2 (USA 95)          
1 22787U 93056A   23318.78182212  .00000142  00000+0  00000+0 0  9992
2 22787  11.5970   8.4631 0004846 222.5074 132.8080  1.00271923109060
USA 99 (MILSTAR-1 1)    
1 22988U 94009A   23318.28215991 -.00000181  00000+0  00000+0 0  9994
2 22988  16.1703  37.7097 0002557 205.8737 181.1793  1.00272861 23487
UFO 4 (USA 108)         
1 23467U 95003A   23318.45209299 -.00000003  00000+0  00000+0 0  9998
2 23467   9.7748  16.1316 0005008 189.2126 183.0285  1.00274629105474
AMSC 1                  
1 23553U 95019A   23318.27294493 -.00000076  00000+0  00000+0 0  9991
2 23553  12.4276  22.8046 0006501 214.2555 166.8586  1.00272333104691
TDRS 7                  
1 23613U 95035B   23318.57801490 -.00000186  00000+0  00000+0 0  9992
2 23613  13.7733 354.7563 0022466  67.4398 283.9160  1.00277561103766
USA 115 (MILSTAR-1 2)   
1 23712U 95060A   23318.26578806 -.00000004  00000+0  00000+0 0  9997
2 23712  13.7210  10.5612 0003940 232.5528 145.7311  1.00274961 23400
INMARSAT 3-F1           
1 23839U 96020A   23318.60605185 -.00000265  00000+0  00000+0 0  9992
2 23839   8.6121  54.5394 0007474 162.2449 200.6363  1.00002691100803
INMARSAT 3-F2           
1 24307U 96053A   23318.99589802  .00000126  00000+0  00000+0 0  9993
2 24307   7.6923  62.8287 0004844 146.5018 228.1878  0.99992790 99506
INMARSAT 3-F3           
1 24674U 96070A   23318.34786212 -.00000151  00000+0  00000+0 0  9991
2 24674   8.2507  57.9549 0007349 170.0844 224.7848  0.99984219 98455
GALAXY 25 (G-25)        
1 24812U 97026A   23318.20007519 -.00000197  00000+0  00000+0 0  9998
2 24812   4.9874  78.3867 0004660  94.8350 297.6360  0.99038928 96854
INTELSAT 5 (IS-5)       
1 24916U 97046A   23318.55952419 -.00000043  00000+0  00000+0 0  9991
2 24916   8.3340  57.2214 0007363 182.4598 181.3068  1.00269228 96135
AMC-3 (GE-3)            
1 24936U 97050A   23318.83333958 -.00000239  00000+0  00000+0 0  9997
2 24936   5.8110  74.4066 0002726 168.2024  39.0822  1.00270814 42955
USA 134                 
1 25019U 97065A   23318.33338723 -.00000042  00000+0  00000+0 0  9998
2 25019  11.6533  28.2464 0002353 238.9091 153.7687  1.00269422 23478
INMARSAT 3-F5           
1 25153U 98006B   23319.16535802 -.00000270  00000+0  00000+0 0  9995
2 25153   7.5563  61.8835 0005102 179.7749 177.8460  1.00267936 94412
ASTRA 2A                
1 25462U 98050A   23319.00233771  .00000091  00000+0  00000+0 0  9990
2 25462   4.6985  79.8887 0002893 153.6106 238.4068  1.00270213 92260
SKYNET 4E               
1 25639U 99009B   23318.84752427 -.00000017  00000+0  00000+0 0  9995
2 25639  11.5152  14.2046 0002951 217.7312 125.6061  1.00271857 41905
ABS-6                   
1 25924U 99053A   23318.90744125 -.00000097  00000+0  00000+0 0  9992
2 25924   0.0121 329.2344 0002979 272.5157 297.6950  1.00270378 88362
UFO 10 (USA 146)        
1 25967U 99063A   23318.34632763 -.00000167  00000+0  00000+0 0  9990
2 25967   9.3612  31.5425 0005962 193.1776 290.3050  1.00277050 87868
GALAXY 11 (G-11)        
1 26038U 99071A   23318.62896692  .00000022  00000+0  00000+0 0  9992
2 26038   4.3135  81.8507 0007269 155.4869 220.1898  1.00068363 87606
USA 148                 
1 26052U 00001A   23318.45374642  .00000057  00000+0  00000+0 0  9998
2 26052  10.3604  39.1745 0002918 214.5065 143.2367  1.00269760 23476
ASIASTAR                
1 26107U 00016A   23318.79696406 -.00000313  00000+0  00000+0 0  9993
2 26107   6.8938  67.5387 0004875 170.1507 207.8973  1.00271672 86447
USA 149 (DSP 20)        
1 26356U 00024A   23318.35604876  .00000112  00000+0  00000+0 0  9996
2 26356  12.4577  18.1866 0001104  68.4860 289.1352  1.00262992 23420
TDRS 8                  
1 26388U 00034A   23318.45609604  .00000114  00000+0  00000+0 0  9999
2 26388  11.1917  38.9056 0004683 203.6860 167.1485  1.00270280 85708
INTELSAT 9 (IS-9)       
1 26451U 00043A   23319.03854735 -.00000268  00000+0  00000+0 0  9993
2 26451   8.3191  57.4081 0004179 188.5582 131.8007  1.00269839 85365
NSS-11 (AAP-1)          
1 26554U 00059A   23318.81106176  .00000048  00000+0  00000+0 0  9993
2 26554   0.0186 313.4970 0002404 279.4506 288.7182  1.00269051 31812
USA 153                 
1 26575U 00065A   23318.63452122 -.00000305  00000+0  00000+0 0  9995
2 26575   9.9802  42.4758 0002805 205.7643 168.1715  1.00269965 23458
AMC-6 (GE-6)            
1 26580U 00067A   23318.74840539  .00000128  00000+0  00000+0 0  9990
2 26580   0.0187 310.4673 0002455 284.6378 308.9394  1.00273096 84429
INTELSAT 1R (IS-1R)     
1 26608U 00072A   23318.63452133 -.00000116  00000+0  00000+0 0  9992
2 26608   5.7038  75.0361 0003792 223.5335 140.4691  1.00272051 31842
ANIK F1                 
1 26624U 00076A   23319.13479937 -.00000040  00000+0  00000+0 0  9997
2 26624   2.7470  86.3197 0005370 111.4380 155.5963  1.00272077 84258
USA 157 (MILSTAR-2 2)   
1 26715U 01009A   23318.32147187  .00000030  00000+0  00000+0 0  9992
2 26715  10.5206  24.9079 0003023 227.6452 152.2450  1.00277008 23474
INTELSAT 10 (IS-10)     
1 26766U 01019A   23318.52493101  .00000055  00000+0  00000+0 0  9998
2 26766   6.8047  68.7131 0004067 173.4717 177.9681  1.00272606 36133
